TUSUR GO (RS78S)        
1 61782U 24199AZ  26087.45028013  .00237582  00000+0  13983-2 0  9997
2 61782  97.2973 326.1912 0005833 176.1622 183.9690 15.77531145122179
